[{"OBJECT_NAME":"SUPERVIEW-1 03","OBJECT_ID":"2018-002A","EPOCH":"2026-03-09T22:14:33.880992","MEAN_MOTION":15.35916978,"ECCENTRICITY":0.00509393,"INCLINATION":97.3162,"RA_OF_ASC_NODE":154.1458,"ARG_OF_PERICENTER":177.0269,"MEAN_ANOMALY":183.1288,"EPHEMERIS_TYPE":0,"CLASSIFICATION_TYPE":"U","NORAD_CAT_ID":43099,"ELEMENT_SET_NO":999,"REV_AT_EPOCH":45311,"BSTAR":0.00062641306,"MEAN_MOTION_DOT":0.00022818,"MEAN_MOTION_DDOT":0},{"OBJECT_NAME":"STARLINK-35645","OBJECT_ID":"2025-237L","EPOCH":"2026-03-09T05:57:25.919424","MEAN_MOTION":15.30191656,"ECCENTRICITY":0.00020592,"INCLINATION":53.1621,"RA_OF_ASC_NODE":41.6257,"ARG_OF_PERICENTER":52.0512,"MEAN_ANOMALY":308.0675,"EPHEMERIS_TYPE":0,"CLASSIFICATION_TYPE":"U","NORAD_CAT_ID":66124,"ELEMENT_SET_NO":999,"REV_AT_EPOCH":2254,"BSTAR":0.0013323174,"MEAN_MOTION_DOT":0.000393,"MEAN_MOTION_DDOT":0}]
